HIERARCHY
ROOT Hips
{
	OFFSET 200.325394 91.900726 -529.822571
	CHANNELS 6 Xposition Yposition Zposition Zrotation Yrotation Xrotation 
	JOINT LeftUpLeg
	{
		OFFSET 0.103461 1.857843 10.548505
		CHANNELS 3 Zrotation Yrotation Xrotation
		JOINT LeftLeg
		{
			OFFSET 43.500000 -0.000019 0.000004
			CHANNELS 3 Zrotation Yrotation Xrotation
			JOINT LeftFoot
			{
				OFFSET 42.372200 0.000000 -0.000006
				CHANNELS 3 Zrotation Yrotation Xrotation
				JOINT LeftToe
				{
					OFFSET 17.299971 -0.000010 0.000000
					CHANNELS 3 Zrotation Yrotation Xrotation
					End Site
					{
						OFFSET 0.000000 0.000000 0.000000
					}
				}
			}
		}
	}
	JOINT RightUpLeg
	{
		OFFSET 0.103458 1.857807 -10.548507
		CHANNELS 3 Zrotation Yrotation Xrotation
		JOINT RightLeg
		{
			OFFSET 43.500042 -0.000019 0.000008
			CHANNELS 3 Zrotation Yrotation Xrotation
			JOINT RightFoot
			{
				OFFSET 42.372253 0.000038 0.000015
				CHANNELS 3 Zrotation Yrotation Xrotation
				JOINT RightToe
				{
					OFFSET 17.299997 -0.000003 0.000002
					CHANNELS 3 Zrotation Yrotation Xrotation
					End Site
					{
						OFFSET 0.000000 0.000000 0.000000
					}
				}
			}
		}
	}
	JOINT Spine
	{
		OFFSET 6.901968 -2.603718 -0.000004
		CHANNELS 3 Zrotation Yrotation Xrotation
		JOINT Spine1
		{
			OFFSET 12.588099 -0.000002 -0.000004
			CHANNELS 3 Zrotation Yrotation Xrotation
			JOINT Spine2
			{
				OFFSET 12.343199 -0.000021 0.000011
				CHANNELS 3 Zrotation Yrotation Xrotation
				JOINT Neck
				{
					OFFSET 25.832893 -0.000019 0.000005
					CHANNELS 3 Zrotation Yrotation Xrotation
					JOINT Head
					{
						OFFSET 11.766620 0.000044 -0.000010
						CHANNELS 3 Zrotation Yrotation Xrotation
						End Site
						{
							OFFSET 0.000000 0.000000 0.000000
						}
					}
				}
				JOINT LeftShoulder
				{
					OFFSET 19.745899 -1.480341 6.000097
					CHANNELS 3 Zrotation Yrotation Xrotation
					JOINT LeftArm
					{
						OFFSET 11.284135 -0.000004 -0.000021
						CHANNELS 3 Zrotation Yrotation Xrotation
						JOINT LeftForeArm
						{
							OFFSET 33.000050 0.000003 0.000037
							CHANNELS 3 Zrotation Yrotation Xrotation
							JOINT LeftHand
							{
								OFFSET 25.200003 0.000046 -0.000005
								CHANNELS 3 Zrotation Yrotation Xrotation
								End Site
								{
									OFFSET 0.000000 0.000000 0.000000
								}
							}
						}
					}
				}
				JOINT RightShoulder
				{
					OFFSET 19.746103 -1.480375 -6.000072
					CHANNELS 3 Zrotation Yrotation Xrotation
					JOINT RightArm
					{
						OFFSET 11.284153 -0.000009 -0.000002
						CHANNELS 3 Zrotation Yrotation Xrotation
						JOINT RightForeArm
						{
							OFFSET 33.000084 -0.000018 0.000013
							CHANNELS 3 Zrotation Yrotation Xrotation
							JOINT RightHand
							{
								OFFSET 25.199766 0.000167 0.000417
								CHANNELS 3 Zrotation Yrotation Xrotation
								End Site
								{
									OFFSET 0.000000 0.000000 0.000000
								}
							}
						}
					}
				}
			}
		}
	}
}
MOTION
Frames: 3
Frame Time: 0.033333
200.325394 91.900726 -529.822571 91.545715 3.471192 90.945055 -174.008836 -0.593803 -178.103849 -6.623371 -3.025302 -2.384005 80.900387 1.702212 -0.153939 21.454551 0.003093 0.000001 -176.872079 2.005703 -178.875182 -14.228547 1.630112 2.098884 84.329832 -1.504247 0.022627 21.454557 -0.003106 -0.000017 5.943940 -0.472548 -0.118798 1.854305 -0.934301 -0.241374 1.536157 -0.935609 -0.235737 20.131257 5.979100 0.074634 -16.746149 -4.903369 1.742197 -56.137229 -83.130273 -126.268246 -13.509909 -3.631901 -4.948292 -6.287023 -12.571950 0.841852 14.360401 6.343541 8.797104 -119.744459 89.034904 62.017052 -2.320801 -0.153785 10.262609 -13.469562 17.692673 -1.205095 17.436486 4.800740 -8.896482 
200.326599 91.901993 -529.830688 91.545715 3.468396 90.969008 -174.023835 -0.593813 -178.080066 -6.630565 -3.025306 -2.384012 80.894028 1.702210 -0.153938 21.454550 0.003089 -0.000002 -176.877324 2.005693 -178.867710 -14.228546 1.634067 2.108544 84.324382 -1.510650 0.022620 21.454560 -0.003114 -0.000018 5.943952 -0.472533 -0.118804 1.857995 -0.929819 -0.241358 1.539858 -0.931117 -0.235743 20.144069 5.958743 0.074645 -16.742631 -4.885642 1.730235 -56.075740 -83.169731 -126.325824 -13.490958 -3.594652 -5.073599 -6.324026 -12.588491 0.841848 14.327891 6.563784 8.488627 -119.859151 89.038155 61.901704 -2.338388 -0.144666 10.299661 -13.446743 17.623871 -1.200644 17.452846 4.891837 -8.978861 
200.328903 91.905006 -529.850098 91.545729 3.461042 91.025070 -174.059694 -0.593797 -178.024195 -6.646726 -3.025297 -2.384007 80.878585 1.702207 -0.153938 21.454550 0.003085 -0.000001 -176.890316 2.005706 -178.851645 -14.228546 1.643696 2.131914 84.311131 -1.526203 0.022628 21.454560 -0.003099 -0.000016 5.943939 -0.472545 -0.118801 1.866552 -0.918846 -0.249071 1.548418 -0.920189 -0.243517 20.162237 5.903303 0.074639 -16.722072 -4.839689 1.706923 -56.118170 -83.233081 -126.277234 -13.480399 -3.560953 -5.192254 -6.366937 -12.583181 0.841848 14.237599 7.130330 7.977179 -119.896758 89.063092 61.862499 -2.378558 -0.144577 10.379424 -13.408211 17.478871 -1.191331 17.445362 5.203813 -8.995802 
