HIERARCHY
ROOT Hips
{
	OFFSET 200.325394 91.900726 -529.822571
	CHANNELS 6 Xposition Yposition Zposition Zrotation Yrotation Xrotation 
	JOINT LeftUpLeg
	{
		OFFSET 0.103461 1.857843 10.548505
		CHANNELS 3 Zrotation Yrotation Xrotation
		JOINT LeftLeg
		{
			OFFSET 43.500000 -0.000019 0.000004
			CHANNELS 3 Zrotation Yrotation Xrotation
			JOINT LeftFoot
			{
				OFFSET 42.372200 0.000000 -0.000006
				CHANNELS 3 Zrotation Yrotation Xrotation
				JOINT LeftToe
				{
					OFFSET 17.299971 -0.000010 0.000000
					CHANNELS 3 Zrotation Yrotation Xrotation
					End Site
					{
						OFFSET 0.000000 0.000000 0.000000
					}
				}
			}
		}
	}
	JOINT RightUpLeg
	{
		OFFSET 0.103458 1.857807 -10.548507
		CHANNELS 3 Zrotation Yrotation Xrotation
		JOINT RightLeg
		{
			OFFSET 43.500042 -0.000019 0.000008
			CHANNELS 3 Zrotation Yrotation Xrotation
			JOINT RightFoot
			{
				OFFSET 42.372253 0.000038 0.000015
				CHANNELS 3 Zrotation Yrotation Xrotation
				JOINT RightToe
				{
					OFFSET 17.299997 -0.000003 0.000002
					CHANNELS 3 Zrotation Yrotation Xrotation
					End Site
					{
						OFFSET 0.000000 0.000000 0.000000
					}
				}
			}
		}
	}
	JOINT Spine
	{
		OFFSET 6.901968 -2.603718 -0.000004
		CHANNELS 3 Zrotation Yrotation Xrotation
		JOINT Spine1
		{
			OFFSET 12.588099 -0.000002 -0.000004
			CHANNELS 3 Zrotation Yrotation Xrotation
			JOINT Spine2
			{
				OFFSET 12.343199 -0.000021 0.000011
				CHANNELS 3 Zrotation Yrotation Xrotation
				JOINT Neck
				{
					OFFSET 25.832893 -0.000019 0.000005
					CHANNELS 3 Zrotation Yrotation Xrotation
					JOINT Head
					{
						OFFSET 11.766620 0.000044 -0.000010
						CHANNELS 3 Zrotation Yrotation Xrotation
						End Site
						{
							OFFSET 0.000000 0.000000 0.000000
						}
					}
				}
				JOINT LeftShoulder
				{
					OFFSET 19.745899 -1.480341 6.000097
					CHANNELS 3 Zrotation Yrotation Xrotation
					JOINT LeftArm
					{
						OFFSET 11.284135 -0.000004 -0.000021
						CHANNELS 3 Zrotation Yrotation Xrotation
						JOINT LeftForeArm
						{
							OFFSET 33.000050 0.000003 0.000037
							CHANNELS 3 Zrotation Yrotation Xrotation
							JOINT LeftHand
							{
								OFFSET 25.200003 0.000046 -0.000005
								CHANNELS 3 Zrotation Yrotation Xrotation
								End Site
								{
									OFFSET 0.000000 0.000000 0.000000
								}
							}
						}
					}
				}
				JOINT RightShoulder
				{
					OFFSET 19.746103 -1.480375 -6.000072
					CHANNELS 3 Zrotation Yrotation Xrotation
					JOINT RightArm
					{
						OFFSET 11.284153 -0.000009 -0.000002
						CHANNELS 3 Zrotation Yrotation Xrotation
						JOINT RightForeArm
						{
							OFFSET 33.000084 -0.000018 0.000013
							CHANNELS 3 Zrotation Yrotation Xrotation
							JOINT RightHand
							{
								OFFSET 25.199766 0.000167 0.000417
								CHANNELS 3 Zrotation Yrotation Xrotation
								End Site
								{
									OFFSET 0.000000 0.000000 0.000000
								}
							}
						}
					}
				}
			}
		}
	}
}
MOTION
Frames: 90
Frame Time: 0.033333
200.325394 91.900726 -529.822571 91.545715 3.471192 90.945055 -174.008836 -0.593803 -178.103849 -6.623371 -3.025302 -2.384005 80.900387 1.702212 -0.153939 21.454551 0.003093 0.000001 -176.872079 2.005703 -178.875182 -14.228547 1.630112 2.098884 84.329832 -1.504247 0.022627 21.454557 -0.003106 -0.000017 5.943940 -0.472548 -0.118798 1.854305 -0.934301 -0.241374 1.536157 -0.935609 -0.235737 20.131257 5.979100 0.074634 -16.746149 -4.903369 1.742197 -56.137229 -83.130273 -126.268246 -13.509909 -3.631901 -4.948292 -6.287023 -12.571950 0.841852 14.360401 6.343541 8.797104 -119.744459 89.034904 62.017052 -2.320801 -0.153785 10.262609 -13.469562 17.692673 -1.205095 17.436486 4.800740 -8.896482 
200.326599 91.901993 -529.830688 91.545715 3.468396 90.969008 -174.023835 -0.593813 -178.080066 -6.630565 -3.025306 -2.384012 80.894028 1.702210 -0.153938 21.454550 0.003089 -0.000002 -176.877324 2.005693 -178.867710 -14.228546 1.634067 2.108544 84.324382 -1.510650 0.022620 21.454560 -0.003114 -0.000018 5.943952 -0.472533 -0.118804 1.857995 -0.929819 -0.241358 1.539858 -0.931117 -0.235743 20.144069 5.958743 0.074645 -16.742631 -4.885642 1.730235 -56.075740 -83.169731 -126.325824 -13.490958 -3.594652 -5.073599 -6.324026 -12.588491 0.841848 14.327891 6.563784 8.488627 -119.859151 89.038155 61.901704 -2.338388 -0.144666 10.299661 -13.446743 17.623871 -1.200644 17.452846 4.891837 -8.978861 
200.328903 91.905006 -529.850098 91.545729 3.461042 91.025070 -174.059694 -0.593797 -178.024195 -6.646726 -3.025297 -2.384007 80.878585 1.702207 -0.153938 21.454550 0.003085 -0.000001 -176.890316 2.005706 -178.851645 -14.228546 1.643696 2.131914 84.311131 -1.526203 0.022628 21.454560 -0.003099 -0.000016 5.943939 -0.472545 -0.118801 1.866552 -0.918846 -0.249071 1.548418 -0.920189 -0.243517 20.162237 5.903303 0.074639 -16.722072 -4.839689 1.706923 -56.118170 -83.233081 -126.277234 -13.480399 -3.560953 -5.192254 -6.366937 -12.583181 0.841848 14.237599 7.130330 7.977179 -119.896758 89.063092 61.862499 -2.378558 -0.144577 10.379424 -13.408211 17.478871 -1.191331 17.445362 5.203813 -8.995802 
200.329803 91.908257 -529.869324 91.549151 3.451380 91.082185 -174.095566 -0.593798 -177.968024 -6.658175 -3.025300 -2.384010 80.860308 1.702205 -0.153939 21.454553 0.003104 0.000000 -176.905069 2.009194 -178.839802 -14.228548 1.652622 2.158719 84.297498 -1.543926 0.027287 21.454560 -0.003108 -0.000017 5.943947 -0.472545 -0.118805 1.873193 -0.911754 -0.258784 1.555058 -0.913172 -0.253257 20.179883 5.873980 0.074768 -16.692825 -4.809092 1.694257 -56.124890 -83.280257 -126.265910 -13.479850 -3.547684 -5.234734 -6.391620 -12.609812 0.841853 14.193340 7.602171 8.061839 -120.043976 89.094101 61.712521 -2.395821 -0.158440 10.388396 -13.412507 17.405291 -1.186767 17.473128 5.301431 -9.013283 
200.330902 91.911491 -529.884277 91.555196 3.438968 91.131164 -174.124007 -0.593785 -177.920199 -6.656775 -3.025292 -2.384008 80.838929 1.702202 -0.153933 21.454553 0.003091 -0.000001 -176.921502 2.013534 -178.837971 -14.228549 1.661542 2.186713 84.285880 -1.562299 0.032641 21.454557 -0.003106 -0.000017 5.943951 -0.472551 -0.118805 1.876154 -0.912474 -0.266795 1.558029 -0.913945 -0.261267 20.199181 5.899935 0.083812 -16.656965 -4.812414 1.701796 -55.976187 -83.305317 -126.411830 -13.483260 -3.537611 -5.230068 -6.405002 -12.639930 0.841847 14.181792 7.880537 8.178090 -121.023726 89.112208 60.731740 -2.392555 -0.164797 10.326164 -13.436621 17.420922 -1.187918 17.483993 5.125289 -8.991066 
200.332901 91.914383 -529.893311 91.560701 3.429158 91.162781 -174.137818 -0.588902 -177.889955 -6.643738 -3.025309 -2.384022 80.817469 1.702191 -0.153931 21.454551 0.003096 0.000001 -176.933592 2.016995 -178.851331 -14.228548 1.669961 2.213595 84.275525 -1.579760 0.038601 21.454557 -0.003099 -0.000017 5.944347 -0.472532 -0.118813 1.878058 -0.916921 -0.269223 1.559895 -0.918382 -0.263685 20.218888 5.934663 0.096502 -16.617133 -4.818574 1.713831 -55.804831 -83.316779 -126.581779 -13.484422 -3.538026 -5.194492 -6.410134 -12.671471 0.841859 14.173392 7.977006 8.259312 -122.137757 89.121292 59.615107 -2.378188 -0.170806 10.277100 -13.435583 17.492922 -1.192404 17.419865 4.855641 -9.013955 
200.335403 91.916702 -529.896423 91.562907 3.426716 91.176325 -174.136861 -0.584111 -177.878261 -6.624516 -3.025304 -2.384017 80.798870 1.702198 -0.153932 21.454553 0.003103 0.000003 -176.938714 2.018657 -178.876125 -14.228544 1.676409 2.236853 84.266537 -1.594580 0.044982 21.454562 -0.003103 -0.000016 5.944762 -0.472547 -0.118805 1.880645 -0.922821 -0.266096 1.562508 -0.924277 -0.260515 20.237127 5.956422 0.107837 -16.575433 -4.814118 1.720859 -55.666936 -83.318507 -126.719270 -13.478999 -3.551017 -5.130548 -6.404369 -12.700931 0.841853 14.131521 7.969231 8.299885 -122.980602 89.121736 58.771517 -2.353216 -0.173727 10.267815 -13.431980 17.583721 -1.198026 17.375436 4.702655 -9.124400 
200.338104 91.918427 -529.895203 91.564307 3.427177 91.179603 -174.129362 -0.579796 -177.878589 -6.606722 -3.025300 -2.384005 80.784909 1.702203 -0.153935 21.454555 0.003091 -0.000000 -176.939302 2.019881 -178.900317 -14.228544 1.679749 2.254002 84.259871 -1.605078 0.051568 21.454560 -0.003112 -0.000017 5.945164 -0.472542 -0.118806 1.883665 -0.929645 -0.260949 1.565525 -0.931070 -0.255330 20.254433 5.965841 0.117492 -16.534886 -4.804721 1.724696 -55.571006 -83.313760 -126.815303 -13.466480 -3.575604 -5.057280 -6.398709 -12.725980 0.841851 14.058031 7.906433 8.292397 -123.515625 89.112426 58.235559 -2.316048 -0.168647 10.309048 -13.447427 17.659403 -1.202853 17.352411 4.781530 -9.161923 
200.340805 91.919434 -529.890320 91.564935 3.429496 91.175423 -174.118857 -0.577965 -177.889504 -6.595421 -3.025299 -2.380623 80.777594 1.699825 -0.153943 21.454553 0.003100 0.000001 -176.938059 2.020645 -178.917242 -14.231509 1.679003 2.262800 84.256414 -1.609742 0.058162 21.454557 -0.003118 -0.000018 5.945581 -0.472542 -0.118805 1.886890 -0.936632 -0.255044 1.568760 -0.938034 -0.249385 20.271704 5.965228 0.125924 -16.499638 -4.796621 1.728171 -55.516204 -83.305317 -126.870832 -13.448139 -3.610228 -5.026164 -6.404247 -12.740758 0.841860 13.958672 7.834586 8.243045 -124.064048 89.105617 57.687621 -2.266069 -0.125215 10.313376 -13.442377 17.689090 -1.204669 17.350808 4.798503 -9.131511 
200.343506 91.919640 -529.882629 91.564963 3.432610 91.165820 -174.110429 -0.576840 -177.917576 -6.598193 -3.025294 -2.369893 80.779684 1.692619 -0.153937 21.454551 0.003089 0.000000 -176.935682 2.021055 -178.922543 -14.239129 1.673906 2.261855 84.256920 -1.607708 0.064201 21.454558 -0.003108 -0.000016 5.945999 -0.472541 -0.118806 1.890427 -0.943177 -0.249146 1.572294 -0.944536 -0.243431 20.288715 5.953626 0.134135 -16.473662 -4.791754 1.733273 -55.497664 -83.295011 -126.890366 -13.428301 -3.645913 -5.048771 -6.429171 -12.767572 0.841844 13.879569 7.870354 8.019442 -124.569892 89.098861 57.181333 -2.217074 -0.086911 10.310843 -13.433772 17.749766 -1.209235 17.330338 4.719498 -9.119041 
200.346207 91.919182 -529.872925 91.564457 3.435442 91.152331 -174.104664 -0.576318 -177.953776 -6.613128 -3.025293 -2.356380 80.789759 1.683571 -0.153936 21.454553 0.003097 -0.000000 -176.932922 2.021136 -178.916245 -14.250489 1.665869 2.251833 84.259515 -1.599585 0.069160 21.454557 -0.003117 -0.000019 5.946402 -0.475382 -0.118812 1.894596 -0.948875 -0.243847 1.576460 -0.950209 -0.238113 20.311967 5.941921 0.137990 -16.471133 -4.801028 1.739599 -55.517851 -83.284724 -126.871228 -13.411590 -3.672192 -5.102162 -6.470445 -12.775051 0.842966 13.796988 7.815483 7.834229 -124.988145 89.091724 56.762974 -2.175118 -0.091323 10.418462 -13.456022 17.837703 -1.214034 17.285983 4.738344 -9.181487 
200.348801 91.918327 -529.862122 91.563487 3.436956 91.136491 -174.101208 -0.576284 -177.982873 -6.634944 -3.025296 -2.348362 80.804635 1.678079 -0.153939 21.454551 0.003083 -0.000000 -176.930463 2.020946 -178.897230 -14.264202 1.655634 2.233039 84.264337 -1.585711 0.071392 21.454557 -0.003107 -0.000016 5.946821 -0.476762 -0.118803 1.897588 -0.951532 -0.239807 1.579455 -0.955068 -0.234038 20.341956 5.929345 0.139686 -16.489229 -4.821744 1.747655 -55.573752 -83.276200 -126.816177 -13.395939 -3.681967 -5.137918 -6.526109 -12.764620 0.845056 13.734829 7.645225 7.823268 -125.268770 89.083999 56.482024 -2.141729 -0.112837 10.540016 -13.483398 17.886391 -1.216699 17.288479 4.859959 -9.097774 
200.350800 91.917351 -529.851074 91.562162 3.437425 91.119013 -174.099295 -0.576580 -177.990987 -6.658097 -3.025297 -2.353741 80.821239 1.681330 -0.153940 21.454553 0.003090 -0.000002 -176.927950 2.020490 -178.871098 -14.278084 1.643781 2.209128 84.269590 -1.568519 0.072920 21.454558 -0.003115 -0.000019 5.947222 -0.477892 -0.118806 1.899660 -0.953737 -0.238624 1.581498 -0.959019 -0.232837 20.366164 5.908913 0.140522 -16.502181 -4.836710 1.753863 -55.682711 -83.268011 -126.708438 -13.385841 -3.654423 -5.120429 -6.589171 -12.810481 0.847616 13.723891 7.652103 7.713370 -125.699824 89.081868 56.049970 -2.110390 -0.151418 10.665352 -13.530676 17.911859 -1.218882 17.362747 4.926134 -8.928319 
200.352295 91.916298 -529.840820 91.560585 3.437822 91.103693 -174.099801 -0.577094 -177.984935 -6.683466 -3.026163 -2.366247 80.838827 1.689240 -0.153937 21.454553 0.003096 -0.000001 -176.924712 2.019866 -178.835499 -14.293002 1.630071 2.181025 84.275621 -1.548632 0.073837 21.454558 -0.003105 -0.000016 5.947642 -0.478789 -0.118806 1.900941 -0.955521 -0.239819 1.582800 -0.960424 -0.234019 20.379664 5.878620 0.140435 -16.500310 -4.838769 1.755135 -55.855760 -83.265272 -126.536071 -13.376890 -3.617580 -5.135215 -6.666598 -12.866342 0.850083 13.762947 7.786818 7.749744 -126.567886 89.084218 55.181358 -2.083372 -0.194066 10.774711 -13.578969 17.904793 -1.220053 17.447841 4.911887 -8.811962 
200.353699 91.915329 -529.832092 91.558877 3.438094 91.094691 -174.106057 -0.577664 -177.971890 -6.711316 -3.028364 -2.379166 80.856169 1.697478 -0.153936 21.454555 0.003110 0.000003 -176.921297 2.019107 -178.792250 -14.307738 1.616471 2.152025 84.281877 -1.528301 0.074181 21.454557 -0.003103 -0.000017 5.948043 -0.479488 -0.118810 1.901917 -0.956915 -0.245264 1.583784 -0.960963 -0.239433 20.389839 5.841646 0.139335 -16.495161 -4.832046 1.751462 -56.051480 -83.271624 -126.339949 -13.373650 -3.591729 -5.111533 -6.723970 -12.896239 0.851982 13.801590 7.992201 7.851572 -127.055671 89.092154 54.693044 -2.064399 -0.267595 10.824602 -13.609112 17.880254 -1.221084 17.506342 4.832831 -8.968941 
200.354599 91.915253 -529.825195 91.555510 3.438227 91.093830 -174.114144 -0.578201 -177.953585 -6.736888 -3.031159 -2.390395 80.870451 1.704762 -0.153942 21.454551 0.003089 0.000001 -176.918729 2.018248 -178.775147 -14.304381 1.610639 2.142610 84.280730 -1.521969 0.074019 21.454558 -0.003108 -0.000016 5.948454 -0.479973 -0.123621 1.902612 -0.957957 -0.254876 1.584471 -0.960818 -0.249065 20.397986 5.802206 0.135747 -16.488673 -4.815349 1.741807 -56.187274 -83.283611 -126.203372 -13.373539 -3.566450 -5.056138 -6.763493 -12.890972 0.853069 13.871791 8.140051 7.955654 -127.300383 89.102345 54.447095 -2.058994 -0.366562 10.808725 -13.600878 17.867401 -1.221977 17.559148 4.730706 -9.003432 
200.355804 91.915443 -529.819824 91.552252 3.438167 91.091965 -174.121712 -0.579298 -177.940471 -6.756523 -3.034030 -2.398053 80.880839 1.709769 -0.153941 21.454553 0.003080 -0.000001 -176.916994 2.017366 -178.765940 -14.299548 1.606417 2.138344 84.277199 -1.519814 0.073412 21.454560 -0.003113 -0.000016 5.948843 -0.480272 -0.128662 1.903076 -0.958676 -0.264971 1.584932 -0.960261 -0.259152 20.399289 5.759190 0.125764 -16.477696 -4.781488 1.719379 -56.178743 -83.292873 -126.210913 -13.379250 -3.521977 -5.012157 -6.785036 -12.894370 0.853657 13.889910 8.266714 8.158243 -127.441481 89.108690 54.305048 -2.060782 -0.497848 10.922233 -13.618614 17.859638 -1.222730 17.564685 4.805209 -9.063554 
200.357193 91.915863 -529.815979 91.549055 3.437887 91.089691 -174.126753 -0.579972 -177.937042 -6.768157 -3.036449 -2.400580 80.886549 1.711504 -0.153940 21.454555 0.003100 0.000003 -176.915587 2.016493 -178.763331 -14.294018 1.603654 2.137773 84.273893 -1.519377 0.072415 21.454557 -0.003102 -0.000018 5.949239 -0.480418 -0.133336 1.903341 -0.959067 -0.274322 1.585209 -0.959517 -0.268496 20.398420 5.716721 0.113602 -16.470830 -4.740949 1.692546 -56.122927 -83.300598 -126.265937 -13.395061 -3.473814 -4.996157 -6.777466 -12.894643 0.853839 13.864759 8.316227 8.364447 -127.348071 89.108246 54.398823 -2.074584 -0.585666 10.922443 -13.580864 17.797952 -1.223391 17.588231 4.875205 -8.889779 
200.359100 91.916351 -529.814087 91.545886 3.437353 91.087102 -174.132026 -0.580500 -177.938094 -6.777687 -3.037879 -2.402027 80.888858 1.712697 -0.153938 21.454553 0.003084 -0.000001 -176.914781 2.014807 -178.765844 -14.288832 1.602159 2.138696 84.270423 -1.520237 0.071105 21.454560 -0.003107 -0.000018 5.949650 -0.480407 -0.137666 1.903455 -0.959179 -0.282990 1.585321 -0.958847 -0.277167 20.408542 5.678419 0.106435 -16.481023 -4.705496 1.672968 -56.074784 -83.308657 -126.313106 -13.411590 -3.434585 -4.990527 -6.731461 -12.915241 0.853833 13.787064 8.389252 8.339168 -127.077787 89.104305 54.668848 -2.079481 -0.638911 10.833417 -13.539451 17.741681 -1.223935 17.628018 4.932280 -8.887953 
200.361404 91.916870 -529.814270 91.542676 3.436520 91.084083 -174.138091 -0.580870 -177.941099 -6.786297 -3.039357 -2.403003 80.890347 1.713620 -0.153941 21.454553 0.003094 -0.000002 -176.914904 2.013838 -178.773522 -14.285286 1.601762 2.140797 84.267117 -1.521944 0.067937 21.454558 -0.003105 -0.000017 5.950025 -0.480256 -0.141083 1.903489 -0.959058 -0.289857 1.585330 -0.958444 -0.284061 20.439164 5.655101 0.107419 -16.512459 -4.684795 1.666941 -56.012950 -83.318186 -126.374004 -13.418171 -3.411923 -4.975920 -6.664892 -12.960703 0.853733 13.697992 8.508064 8.046484 -126.729434 89.095180 55.018400 -2.070919 -0.664393 10.738737 -13.521238 17.729539 -1.224382 17.643530 4.948694 -9.041875 
200.363693 91.917503 -529.816223 91.539855 3.435355 91.080873 -174.144976 -0.581140 -177.943927 -6.793253 -3.040767 -2.403699 80.891105 1.714376 -0.153936 21.454550 0.003078 -0.000002 -176.916257 2.013055 -178.783985 -14.282940 1.602295 2.143670 84.264426 -1.525902 0.061129 21.454557 -0.003109 -0.000016 5.950417 -0.479979 -0.144141 1.903438 -0.958699 -0.295887 1.585296 -0.958176 -0.290102 20.475319 5.645308 0.112814 -16.550826 -4.676226 1.667753 -55.986774 -83.320446 -126.399822 -13.414471 -3.411996 -4.940130 -6.604534 -12.999193 0.853734 13.600300 8.550085 7.779470 -126.039584 89.075495 55.710469 -2.043671 -0.669665 10.724305 -13.548208 17.743372 -1.224741 17.622300 4.922400 -9.265243 
200.365601 91.918213 -529.819275 91.538366 3.433812 91.077806 -174.152311 -0.581276 -177.946645 -6.798375 -3.042287 -2.404230 80.891214 1.715034 -0.153934 21.454555 0.003086 -0.000002 -176.920915 2.012407 -178.795419 -14.281295 1.603583 2.148627 84.261763 -1.531357 0.051675 21.454555 -0.003114 -0.000018 5.950868 -0.479616 -0.146939 1.903388 -0.958141 -0.301684 1.585257 -0.957738 -0.295897 20.515812 5.640908 0.118587 -16.590495 -4.671948 1.671160 -56.016847 -83.316102 -126.370234 -13.399632 -3.490334 -4.854981 -6.547479 -12.933273 0.853994 13.501730 8.509900 7.650801 -125.025397 89.046324 56.727388 -2.012341 -0.652526 10.764321 -13.571997 17.783876 -1.225017 17.572615 4.783368 -9.423458 
200.367096 91.918953 -529.823975 91.537423 3.430668 91.075054 -174.160275 -0.581358 -177.949036 -6.802321 -3.044154 -2.404756 80.890716 1.715690 -0.153937 21.454548 0.003098 0.000001 -176.926625 2.011878 -178.806839 -14.279818 1.605462 2.153994 84.259092 -1.537246 0.041477 21.454553 -0.003112 -0.000017 5.951481 -0.479163 -0.150081 1.902877 -0.957410 -0.307737 1.584736 -0.957139 -0.301983 20.560083 5.625312 0.122141 -16.627139 -4.659806 1.672366 -56.169847 -83.306602 -126.218453 -13.372789 -3.580634 -4.802262 -6.547968 -12.931402 0.854667 13.481850 8.649294 7.751701 -123.830141 89.014837 57.926151 -1.977129 -0.616249 10.835328 -13.588749 17.833241 -1.225254 17.510312 4.635304 -9.550093 
200.368393 91.919670 -529.830078 91.536577 3.427320 91.072383 -174.167884 -0.581370 -177.951058 -6.803431 -3.046547 -2.405373 80.889705 1.716454 -0.153939 21.454551 0.003096 -0.000000 -176.933305 2.011460 -178.817289 -14.278651 1.607735 2.158695 84.255998 -1.542504 0.032134 21.454555 -0.003107 -0.000017 5.952215 -0.478642 -0.154554 1.901419 -0.956535 -0.316666 1.583275 -0.956425 -0.310921 20.608784 5.607964 0.122984 -16.655261 -4.643730 1.667574 -56.337279 -83.286036 -126.053258 -13.336131 -3.632563 -4.755885 -6.588512 -12.943442 0.855879 13.531630 8.558529 7.689602 -123.179142 88.999072 58.579035 -1.930485 -0.550577 10.842132 -13.562091 17.838637 -1.225393 17.491674 4.593625 -9.538187 
200.369095 91.920326 -529.837830 91.535798 3.424226 91.069637 -174.175698 -0.581313 -177.952806 -6.803117 -3.050296 -2.406250 80.888250 1.717370 -0.153938 21.454553 0.003083 -0.000000 -176.941720 2.011136 -178.826879 -14.277932 1.610231 2.160426 84.252036 -1.544680 0.025505 21.454560 -0.003109 -0.000019 5.953070 -0.478053 -0.158757 1.899516 -0.955549 -0.325381 1.581377 -0.955593 -0.319650 20.648123 5.605905 0.117950 -16.656453 -4.633688 1.656618 -56.514105 -83.255723 -125.879922 -13.329760 -3.659065 -4.750585 -6.610492 -12.987959 0.857821 13.586222 8.413164 7.644180 -122.612004 88.980474 59.147690 -1.883085 -0.494952 10.860959 -13.556172 17.840167 -1.225494 17.433479 4.622118 -9.639335 
200.369003 91.920822 -529.846985 91.535122 3.421660 91.066270 -174.182992 -0.581226 -177.954391 -6.801424 -3.054833 -2.407486 80.886426 1.718574 -0.153935 21.454553 0.003087 -0.000001 -176.951241 2.010892 -178.835649 -14.277826 1.612810 2.161413 84.246804 -1.545574 0.021857 21.454558 -0.003110 -0.000017 5.953984 -0.477440 -0.162190 1.897370 -0.954470 -0.331907 1.579222 -0.954689 -0.326179 20.666339 5.611483 0.103948 -16.635981 -4.623773 1.636061 -56.695228 -83.219039 -125.702883 -13.347971 -3.663122 -4.792364 -6.628111 -13.052830 0.861941 13.624998 8.350229 7.756856 -121.651980 88.945565 60.111252 -1.853071 -0.470823 10.927464 -13.600301 17.857682 -1.225549 17.363060 4.716127 -9.883820 
200.369598 91.921181 -529.857727 91.534514 3.419831 91.061407 -174.189495 -0.581089 -177.955866 -6.796943 -3.059084 -2.409233 80.884309 1.720105 -0.153937 21.454555 0.003100 0.000000 -176.962019 2.010704 -178.843490 -14.278469 1.615246 2.161704 84.240507 -1.546042 0.018266 21.454557 -0.003107 -0.000018 5.954945 -0.476795 -0.163621 1.895149 -0.953326 -0.334742 1.576998 -0.953717 -0.329023 20.656584 5.631660 0.082978 -16.600869 -4.617981 1.609974 -56.802995 -83.187066 -125.598272 -13.373789 -3.649160 -4.856477 -6.644318 -13.117991 0.863784 13.594222 8.299785 7.911729 -120.026368 88.878479 61.743783 -1.874688 -0.465246 10.981201 -13.637550 17.841009 -1.225563 17.332956 4.946773 -9.896159 
200.370407 91.921379 -529.870178 91.533961 3.418576 91.054830 -174.195915 -0.580949 -177.957041 -6.790555 -3.061722 -2.412414 80.880054 1.722654 -0.153932 21.454551 0.003087 -0.000002 -176.975433 2.010553 -178.850074 -14.279994 1.617400 2.161365 84.234305 -1.546104 0.016107 21.454558 -0.003113 -0.000018 5.955945 -0.476149 -0.164368 1.893037 -0.952155 -0.336074 1.574907 -0.952724 -0.330353 20.619436 5.649793 0.066648 -16.557330 -4.608080 1.588486 -56.922093 -83.150491 -125.483102 -13.410580 -3.621393 -4.925193 -6.656684 -13.164710 0.864792 13.505921 8.234252 8.103365 -118.466448 88.805150 63.309945 -1.927497 -0.486141 10.995566 -13.662263 17.841270 -1.225595 17.366601 5.115865 -9.737772 
200.371094 91.921532 -529.884521 91.533482 3.417298 91.046586 -174.201612 -0.580830 -177.946673 -6.779877 -3.069179 -2.423245 80.874084 1.730856 -0.153938 21.454548 0.003085 -0.000003 -176.990788 2.010439 -178.855457 -14.284484 1.619106 2.160479 84.227912 -1.545810 0.014794 21.454558 -0.003100 -0.000017 5.956955 -0.475516 -0.164842 1.891248 -0.950957 -0.336962 1.573099 -0.951712 -0.331232 20.572371 5.670253 0.055058 -16.509843 -4.604223 1.574542 -56.986437 -83.122740 -125.421562 -13.438997 -3.584672 -4.983153 -6.671499 -13.189193 0.865168 13.404110 8.286031 8.129145 -117.574439 88.758090 64.206872 -1.965020 -0.527515 10.957663 -13.669778 17.855650 -1.225572 17.435574 5.100153 -9.489942 
200.371597 91.921638 -529.900818 91.533038 3.416054 91.036757 -174.208305 -0.580717 -177.940471 -6.769863 -3.074581 -2.432622 80.868122 1.737782 -0.153938 21.454553 0.003094 -0.000001 -177.007740 2.010342 -178.860238 -14.289851 1.620170 2.159078 84.221779 -1.545191 0.015224 21.454560 -0.003111 -0.000017 5.957945 -0.474911 -0.165074 1.889940 -0.949791 -0.337451 1.571799 -0.950746 -0.331725 20.530864 5.694662 0.048448 -16.473679 -4.615301 1.571430 -56.961121 -83.112337 -125.447885 -13.448451 -3.537218 -4.979870 -6.685862 -13.190571 0.865091 13.319004 8.370873 8.140822 -117.141556 88.732203 64.641641 -1.985021 -0.566886 10.965498 -13.667950 17.821154 -1.225571 17.426591 4.980874 -9.586101 
200.371994 91.921783 -529.918884 91.532642 3.414874 91.025863 -174.215190 -0.580645 -177.940648 -6.759973 -3.075192 -2.439200 80.861455 1.742098 -0.153945 21.454555 0.003084 -0.000001 -177.025376 2.010237 -178.864227 -14.295510 1.620409 2.157229 84.216151 -1.543556 0.019446 21.454560 -0.003110 -0.000018 5.958882 -0.474353 -0.165104 1.888891 -0.948661 -0.337625 1.570765 -0.949801 -0.331890 20.493757 5.720969 0.042148 -16.454889 -4.645225 1.569085 -56.894950 -83.112706 -125.513865 -13.447149 -3.488916 -4.932208 -6.705889 -13.181080 0.864749 13.278074 8.427204 8.159686 -116.869550 88.717471 64.915190 -2.001554 -0.607151 10.973489 -13.645176 17.771852 -1.225569 17.315189 5.063149 -9.810659 
200.372192 91.921928 -529.938904 91.532287 3.413832 91.013452 -174.221037 -0.580629 -177.942656 -6.748410 -3.073773 -2.445694 80.853307 1.743673 -0.153937 21.454555 0.003094 0.000000 -177.043435 2.010095 -178.869964 -14.301656 1.619675 2.155010 84.210837 -1.540399 0.025610 21.454558 -0.003109 -0.000017 5.959761 -0.473838 -0.164999 1.887982 -0.947613 -0.337525 1.569835 -0.948916 -0.331812 20.460390 5.737966 0.037556 -16.444982 -4.660027 1.567145 -56.828656 -83.115841 -125.579708 -13.436322 -3.467873 -4.975259 -6.752944 -13.130580 0.864338 13.280949 8.322074 8.373193 -116.588939 88.708653 65.196614 -2.017377 -0.646122 10.980839 -13.611705 17.739048 -1.225597 17.208213 5.099593 -10.051331 
200.372498 91.922043 -529.960815 91.531952 3.412980 90.999150 -174.226583 -0.580696 -177.951891 -6.736944 -3.071248 -2.447937 80.844325 1.744567 -0.153939 21.454555 0.003095 0.000001 -177.062327 2.009905 -178.877409 -14.309022 1.616926 2.150672 84.206124 -1.536561 0.033013 21.454558 -0.003103 -0.000017 5.960561 -0.473400 -0.164747 1.887509 -0.946662 -0.337260 1.569365 -0.948129 -0.331533 20.428870 5.745100 0.032843 -16.444452 -4.662895 1.565268 -56.791145 -83.113990 -125.617328 -13.425429 -3.464135 -5.043169 -6.808323 -13.090012 0.864035 13.321721 8.252101 8.640157 -116.232649 88.700798 65.554168 -2.034524 -0.678147 10.994995 -13.576596 17.758789 -1.225634 17.153272 4.953292 -10.174552 
200.372696 91.922142 -529.984375 91.531645 3.412360 90.983994 -174.232552 -0.580814 -177.964868 -6.725914 -3.068559 -2.448759 80.834572 1.744849 -0.153938 21.454555 0.003102 0.000001 -177.081971 2.009670 -178.886411 -14.316843 1.614417 2.146587 84.202285 -1.532569 0.041168 21.454558 -0.003106 -0.000017 5.961229 -0.473073 -0.164442 1.887797 -0.945835 -0.336855 1.569646 -0.947468 -0.331121 20.398018 5.741152 0.028388 -16.454581 -4.654336 1.564145 -56.792466 -83.104940 -125.616864 -13.417721 -3.474408 -5.105945 -6.858212 -13.059489 0.864037 13.404148 8.229995 8.861895 -115.738689 88.692540 66.049370 -2.050879 -0.697271 11.015304 -13.547202 17.837399 -1.225697 17.148483 4.647047 -10.178315 
200.372696 91.922218 -530.010071 91.531372 3.412034 90.971529 -174.242292 -0.581044 -177.977859 -6.717918 -3.065156 -2.448424 80.824436 1.744547 -0.153935 21.454551 0.003099 0.000001 -177.102939 2.009376 -178.893528 -14.324568 1.612041 2.143355 84.199137 -1.528441 0.049686 21.454558 -0.003110 -0.000017 5.961781 -0.472831 -0.164124 1.889135 -0.945173 -0.336374 1.570992 -0.946921 -0.330664 20.372269 5.730509 0.026820 -16.480635 -4.638053 1.564417 -56.819046 -83.092885 -125.591606 -13.409891 -3.505551 -5.114548 -6.884476 -13.048403 0.864508 13.515643 8.295400 8.866438 -115.157905 88.682848 66.631760 -2.062052 -0.694934 11.033227 -13.536060 17.915839 -1.225803 17.149167 4.481916 -10.103495 
200.372101 91.922417 -530.038696 91.531092 3.412040 90.967349 -174.260433 -0.581395 -177.984730 -6.715953 -3.061691 -2.447212 80.814013 1.743715 -0.153939 21.454553 0.003101 0.000002 -177.126818 2.008992 -178.893501 -14.332201 1.610095 2.141561 84.197251 -1.524880 0.058060 21.454557 -0.003106 -0.000019 5.962142 -0.472725 -0.163816 1.893268 -0.944674 -0.335905 1.575109 -0.946553 -0.330204 20.340585 5.727447 0.032385 -16.510963 -4.622784 1.567954 -56.823509 -83.078931 -125.588601 -13.397211 -3.548834 -5.057909 -6.852965 -13.083259 0.865686 13.545910 8.458592 8.671715 -114.739583 88.672043 67.051393 -2.061908 -0.649213 10.999938 -13.519863 17.950809 -1.225975 17.139103 4.553987 -9.996674 
200.371094 91.922623 -530.067688 91.530812 3.412450 90.963735 -174.279694 -0.581873 -177.993063 -6.714599 -3.058091 -2.445376 80.803686 1.742421 -0.153941 21.454553 0.003088 -0.000002 -177.149685 2.008484 -178.895536 -14.337991 1.608133 2.140545 84.195223 -1.522106 0.065976 21.454560 -0.003112 -0.000018 5.962327 -0.472750 -0.163571 1.898219 -0.944386 -0.335507 1.580070 -0.946375 -0.329792 20.291678 5.734450 0.046790 -16.533824 -4.613955 1.583613 -56.812339 -83.067572 -125.600745 -13.371089 -3.586779 -4.979402 -6.851450 -13.139409 0.867715 13.542493 8.542839 8.508303 -114.470105 88.657536 67.322525 -2.046741 -0.571309 10.927462 -13.526150 17.969540 -1.226196 17.124889 4.731059 -9.964050 
200.369995 91.922707 -530.095215 91.530532 3.413309 90.953647 -174.293368 -0.582510 -178.009305 -6.713074 -3.054175 -2.443185 80.793679 1.740710 -0.153940 21.454551 0.003085 -0.000002 -177.167703 2.007860 -178.906423 -14.339849 1.606191 2.140078 84.193167 -1.519798 0.073172 21.454555 -0.003115 -0.000020 5.962311 -0.472940 -0.163421 1.903697 -0.944338 -0.335238 1.585553 -0.946397 -0.329532 20.169166 5.732439 0.073573 -16.436017 -4.576029 1.600650 -56.818079 -83.060530 -125.595759 -13.332783 -3.604541 -4.887693 -6.888198 -13.210340 0.872239 13.504872 8.505295 8.336697 -113.997100 88.634272 67.798343 -2.027120 -0.493501 10.874083 -13.576073 17.986388 -1.226503 17.113520 4.968655 -9.977650 
200.368500 91.922897 -530.121826 91.530238 3.414657 90.943149 -174.306674 -0.583289 -178.027105 -6.711687 -3.050886 -2.439045 80.784356 1.738627 -0.156085 21.454553 0.003092 -0.000001 -177.182129 2.007093 -178.915863 -14.336649 1.605132 2.139979 84.190756 -1.518231 0.080229 21.454558 -0.003111 -0.000017 5.962062 -0.473290 -0.163438 1.907983 -0.944556 -0.335157 1.589852 -0.946663 -0.329449 20.019745 5.719197 0.094616 -16.377911 -4.545186 1.617582 -56.870897 -83.054540 -125.543603 -13.294379 -3.588405 -4.744683 -6.942397 -13.288579 0.877256 13.446757 8.337986 8.028088 -113.263306 88.613788 68.534173 -2.001527 -0.449603 10.880443 -13.670051 18.016854 -1.226865 17.113587 5.192107 -10.019151 
200.365997 91.923141 -530.148315 91.529938 3.416564 90.934161 -174.324282 -0.584254 -178.044617 -6.710681 -3.047590 -2.434001 80.776829 1.734555 -0.158122 21.454557 0.003088 0.000001 -177.196431 2.005807 -178.925411 -14.329472 1.605834 2.140840 84.187573 -1.519083 0.087084 21.454558 -0.003107 -0.000016 5.961545 -0.473840 -0.163635 1.909547 -0.945047 -0.335339 1.591404 -0.947196 -0.329631 19.849107 5.682145 0.104776 -16.404212 -4.497789 1.622236 -56.989493 -83.045962 -125.426111 -13.270952 -3.542180 -4.595933 -6.998301 -13.357645 0.881688 13.397930 8.094641 7.685468 -112.415283 88.603099 69.384791 -1.972830 -0.459661 10.960883 -13.798610 18.063948 -1.227301 17.162454 5.336242 -10.032418 
200.363693 91.923447 -530.172913 91.529603 3.421220 90.928621 -174.333817 -0.585410 -178.061188 -6.710352 -3.043700 -2.427582 80.767001 1.729549 -0.160078 21.454553 0.003083 -0.000000 -177.201403 2.003443 -178.949071 -14.315626 1.610647 2.151567 84.182580 -1.525381 0.093073 21.454562 -0.003107 -0.000017 5.960750 -0.474591 -0.164068 1.909760 -0.945875 -0.335853 1.591607 -0.948001 -0.330134 19.644695 5.662718 0.111141 -16.455411 -4.482229 1.636725 -57.185619 -83.031932 -125.231737 -13.276439 -3.483269 -4.510732 -7.045333 -13.405931 0.884646 13.356712 7.902854 7.507861 -111.752277 88.595142 70.048993 -1.965404 -0.518833 10.944014 -13.869310 18.129282 -1.227759 17.254789 5.371803 -9.832754 
200.360992 91.924080 -530.195618 91.529248 3.428004 90.927078 -174.338038 -0.586773 -178.078359 -6.710967 -3.039781 -2.418480 80.755123 1.722798 -0.162185 21.454555 0.003099 -0.000001 -177.196964 2.000673 -178.992730 -14.290194 1.623662 2.175993 84.173872 -1.541506 0.098021 21.454558 -0.003106 -0.000016 5.959627 -0.475562 -0.164791 1.908671 -0.947035 -0.336752 1.590524 -0.949126 -0.331017 19.409415 5.676634 0.098521 -16.506469 -4.560736 1.665943 -57.411804 -83.015369 -125.007638 -13.312432 -3.403334 -4.577607 -7.076447 -13.444503 0.887290 13.341452 8.049871 7.605161 -111.379376 88.590689 70.423137 -1.982100 -0.601514 10.897779 -13.885998 18.160404 -1.228234 17.314231 5.376960 -9.681687 
200.357697 91.924583 -530.216187 91.528852 3.436400 90.929946 -174.343994 -0.588365 -178.082088 -6.712770 -3.036768 -2.414608 80.748060 1.719366 -0.164717 21.454553 0.003085 -0.000001 -177.186213 1.997479 -179.037905 -14.259036 1.638165 2.203976 84.163893 -1.560309 0.102180 21.454558 -0.003110 -0.000017 5.958212 -0.476761 -0.165828 1.905030 -0.948567 -0.338096 1.586896 -0.950579 -0.332361 19.171556 5.702698 0.075002 -16.547704 -4.681310 1.698430 -57.638245 -82.997392 -124.783308 -13.361151 -3.300372 -4.757727 -7.112516 -13.494631 0.890509 13.300450 8.286642 7.952383 -111.473427 88.587226 70.329543 -2.018051 -0.691156 10.893400 -13.887124 18.182295 -1.228739 17.340425 5.264364 -9.741675 
200.354294 91.924782 -530.234985 91.528421 3.445131 90.938662 -174.351152 -0.590199 -178.076460 -6.718236 -3.035208 -2.412185 80.743553 1.716832 -0.168189 21.454551 0.003086 -0.000001 -177.173809 1.994001 -179.069569 -14.229778 1.650171 2.227540 84.156175 -1.576166 0.105246 21.454560 -0.003102 -0.000017 5.954652 -0.478222 -0.167226 1.897913 -0.950482 -0.339971 1.579793 -0.952387 -0.334217 18.937239 5.712912 0.065566 -16.509481 -4.732960 1.717496 -57.842324 -82.979818 -124.581394 -13.375242 -3.172167 -4.933036 -7.229529 -13.584352 0.896355 13.221522 8.336335 8.224926 -111.968882 88.584316 69.832892 -2.063874 -0.785742 10.948897 -13.854661 18.187112 -1.229217 17.352010 5.024261 -9.705428 
200.350296 91.924454 -530.252014 91.527984 3.454381 90.951236 -174.358419 -0.593697 -178.066611 -6.726652 -3.034198 -2.410311 80.742282 1.714618 -0.171663 21.454550 0.003080 -0.000002 -177.162936 1.989709 -179.076345 -14.209058 1.653943 2.239265 84.154686 -1.583843 0.107104 21.454560 -0.003111 -0.000017 5.949138 -0.479962 -0.169034 1.886943 -0.954703 -0.343970 1.568790 -0.956633 -0.338182 18.785402 5.688549 0.045146 -16.523150 -4.705330 1.694674 -57.999077 -82.964914 -124.426307 -13.355057 -3.008121 -5.152922 -7.433411 -13.748642 0.907085 13.141050 8.365449 8.508785 -112.727088 88.583899 69.073280 -2.117300 -0.878723 11.007663 -13.771669 18.159800 -1.229671 17.294123 4.954678 -9.824558 
200.344299 91.923607 -530.266113 91.527540 3.465362 90.967471 -174.363227 -0.599491 -178.054945 -6.736241 -3.033641 -2.407818 80.742152 1.712025 -0.174992 21.454551 0.003089 -0.000001 -177.150423 1.981909 -179.063231 -14.193572 1.648887 2.242362 84.155669 -1.587018 0.108765 21.454558 -0.003104 -0.000017 5.941115 -0.481970 -0.171310 1.870922 -0.961238 -0.350107 1.552789 -0.963202 -0.344302 18.712799 5.660730 0.024385 -16.571202 -4.647117 1.657821 -58.054361 -82.960926 -124.371570 -13.290272 -2.826551 -5.294407 -7.713181 -14.003532 0.923690 13.091152 8.560546 8.760828 -113.785849 88.597512 68.012210 -2.135092 -0.971917 11.115268 -13.712397 18.140108 -1.230069 17.223181 4.892810 -9.928137 
200.337097 91.922493 -530.277527 91.527083 3.478489 90.988734 -174.364839 -0.606698 -178.039700 -6.745383 -3.033441 -2.403688 80.743013 1.708425 -0.177812 21.454551 0.003076 -0.000002 -177.133935 1.972408 -179.036771 -14.179837 1.639187 2.241051 84.158258 -1.589270 0.109765 21.454560 -0.003109 -0.000017 5.931191 -0.486099 -0.175906 1.851137 -0.969451 -0.359313 1.532995 -0.971471 -0.353435 18.698077 5.646295 0.003184 -16.615475 -4.596720 1.619965 -58.046793 -82.959867 -124.379152 -13.157569 -2.640235 -5.329611 -8.086281 -14.304000 0.943449 13.015951 8.853651 8.806715 -114.778624 88.620017 67.016156 -2.118845 -1.063498 11.235345 -13.696411 18.108349 -1.230432 17.177839 4.872992 -10.017863 
200.329605 91.921097 -530.286682 91.526611 3.491640 91.010597 -174.364238 -0.613998 -178.029263 -6.754643 -3.033511 -2.396150 80.744673 1.702608 -0.180214 21.454550 0.003092 -0.000001 -177.117856 1.962491 -179.002879 -14.170100 1.626478 2.236027 84.161557 -1.590655 0.109599 21.454558 -0.003102 -0.000017 5.919618 -0.491047 -0.180315 1.828037 -0.979320 -0.368093 1.509878 -0.981381 -0.362179 18.720346 5.659186 -0.025797 -16.627156 -4.581816 1.582991 -57.971982 -82.958419 -124.454106 -12.997502 -2.515263 -5.269121 -8.413664 -14.524343 0.958129 12.959281 9.076307 8.708121 -115.133576 88.615912 66.661130 -2.122205 -1.132632 11.319528 -13.691239 18.067017 -1.230712 17.160835 4.899615 -10.077941 
200.322998 91.919579 -530.293091 91.526133 3.504946 91.032310 -174.360195 -0.619901 -178.022406 -6.760668 -3.033767 -2.386731 80.746927 1.695525 -0.182427 21.454555 0.003079 0.000000 -177.100398 1.953791 -178.965040 -14.161746 1.613210 2.228561 84.164726 -1.591244 0.107765 21.454560 -0.003119 -0.000018 5.907182 -0.497161 -0.183719 1.803199 -0.991566 -0.375041 1.485051 -0.993681 -0.369055 18.745560 5.679511 -0.058278 -16.543871 -4.584931 1.544356 -57.858908 -82.952292 -124.567515 -12.881931 -2.483997 -5.107879 -8.580785 -14.595788 0.963102 12.907423 9.077564 8.617767 -114.445734 88.566462 67.352919 -2.168403 -1.169572 11.357583 -13.690908 18.021650 -1.230897 17.187087 4.885078 -10.192267 
200.316193 91.917763 -530.298401 91.525676 3.522652 91.053757 -174.351698 -0.626912 -178.018909 -6.768161 -3.034108 -2.375414 80.751298 1.687199 -0.184649 21.454555 0.003097 0.000002 -177.078637 1.943500 -178.926436 -14.154503 1.598619 2.220725 84.168633 -1.591157 0.101646 21.454560 -0.003100 -0.000016 5.896460 -0.503239 -0.186580 1.781785 -1.003713 -0.380631 1.463650 -1.005864 -0.374546 18.787902 5.691848 -0.083752 -16.472770 -4.584122 1.511454 -57.785340 -82.938529 -124.642210 -12.811661 -2.504418 -4.944838 -8.639908 -14.598063 0.963407 12.858789 9.013663 8.471112 -113.881861 88.529668 67.920064 -2.171493 -1.167439 11.361700 -13.717110 17.982000 -1.230976 17.245645 4.827789 -10.380082 
200.308899 91.915527 -530.304382 91.525245 3.547440 91.073449 -174.338680 -0.636599 -178.018991 -6.780509 -3.034434 -2.363210 80.758224 1.678314 -0.186959 21.454550 0.003083 0.000000 -177.051139 1.929898 -178.890919 -14.148091 1.582942 2.213969 84.171208 -1.590424 0.091522 21.454560 -0.003113 -0.000017 5.889579 -0.508633 -0.188841 1.768081 -1.014480 -0.382142 1.449937 -1.016651 -0.376007 18.822188 5.691594 -0.101417 -16.388101 -4.544592 1.472884 -57.743389 -82.903279 -124.687630 -12.790030 -2.524518 -4.901873 -8.644150 -14.610017 0.963805 12.876559 8.971797 8.452848 -113.662196 88.514566 68.141136 -2.123592 -1.131079 11.352835 -13.770048 17.970897 -1.230807 17.312860 4.834424 -10.610884 
200.302307 91.912956 -530.310486 91.524835 3.575654 91.089049 -174.321987 -0.645291 -178.020917 -6.793360 -3.034660 -2.351815 80.766229 1.669949 -0.189474 21.454548 0.003090 -0.000001 -177.022329 1.917103 -178.865825 -14.144340 1.569650 2.213506 84.174063 -1.589145 0.078625 21.454557 -0.003106 -0.000017 5.885049 -0.513587 -0.189988 1.759050 -1.024374 -0.384288 1.440906 -1.026562 -0.378112 18.848759 5.686441 -0.121717 -16.320850 -4.540926 1.445600 -57.761394 -82.860645 -124.673888 -12.788242 -2.541844 -4.963595 -8.643827 -14.662791 0.964243 12.964049 9.015958 8.596614 -113.477883 88.496500 68.326870 -2.070891 -1.067004 11.335381 -13.822639 18.006262 -1.230292 17.366806 4.979631 -10.646568 
200.297104 91.909843 -530.315674 91.524432 3.608389 91.092908 -174.299761 -0.651694 -178.024851 -6.808060 -3.034700 -2.346668 80.777765 1.665610 -0.192144 21.454551 0.003084 0.000001 -176.992673 1.905597 -178.864486 -14.144956 1.560963 2.215931 84.178974 -1.587389 0.064454 21.454557 -0.003107 -0.000020 5.883419 -0.517971 -0.190791 1.753936 -1.033147 -0.386815 1.435797 -1.035359 -0.380563 18.870493 5.679180 -0.137640 -16.264943 -4.540252 1.424886 -57.811199 -82.820941 -124.628071 -12.787091 -2.566777 -5.056351 -8.641383 -14.716380 0.964676 13.022261 9.101621 8.788357 -113.401289 88.485606 68.404707 -2.011387 -0.988390 11.302314 -13.865096 18.036091 -1.229477 17.360121 5.125365 -10.672211 
200.293900 91.906380 -530.319824 91.524098 3.646851 91.078967 -174.267359 -0.656197 -178.036148 -6.819789 -3.034452 -2.348552 80.791425 1.663754 -0.195389 21.454553 0.003110 0.000002 -176.960216 1.894195 -178.883310 -14.147975 1.553357 2.218529 84.183892 -1.585245 0.050884 21.454557 -0.003116 -0.000018 5.882821 -0.521552 -0.191290 1.753303 -1.040114 -0.389464 1.435163 -1.042266 -0.383163 18.884131 5.659010 -0.149574 -16.220526 -4.528898 1.405644 -57.885348 -82.791756 -124.557051 -12.786247 -2.598833 -5.148476 -8.637940 -14.747292 0.965138 13.011230 9.170648 8.953293 -113.390976 88.482123 68.415218 -1.951216 -0.904528 11.265420 -13.895231 18.076229 -1.228463 17.350289 4.950979 -10.648121 
200.290894 91.903343 -530.330017 91.523763 3.680512 91.073879 -174.249969 -0.657785 -178.031066 -6.841270 -3.033834 -2.353305 80.805338 1.662705 -0.199844 21.454553 0.003088 -0.000000 -176.936611 1.884293 -178.885673 -14.153829 1.543470 2.218642 84.188106 -1.582766 0.038864 21.454557 -0.003109 -0.000018 5.883104 -0.524126 -0.191543 1.754713 -1.045526 -0.391971 1.436571 -1.047674 -0.385656 18.887140 5.628695 -0.156654 -16.188930 -4.505168 1.388395 -58.032245 -82.770507 -124.412306 -12.785651 -2.632838 -5.218297 -8.632844 -14.720490 0.965610 12.959909 9.148668 8.952386 -113.407676 88.486508 68.398368 -1.902460 -0.826578 11.230083 -13.895853 18.119539 -1.227256 17.298103 4.788506 -10.613385 
200.288498 91.900864 -530.348389 91.523524 3.707024 91.075867 -174.250830 -0.657860 -178.023348 -6.872527 -3.032403 -2.356974 80.818357 1.661800 -0.203561 21.454553 0.003098 -0.000000 -176.927444 1.877002 -178.872559 -14.166208 1.531626 2.213402 84.192347 -1.580058 0.029583 21.454558 -0.003101 -0.000016 5.884125 -0.525662 -0.191590 1.756969 -1.050356 -0.394143 1.438819 -1.052535 -0.387777 18.880286 5.599498 -0.154244 -16.173290 -4.475103 1.377460 -58.241344 -82.751970 -124.205515 -12.785518 -2.658993 -5.248912 -8.624914 -14.673200 0.966089 12.919050 9.096897 8.850781 -113.561635 88.496500 68.243418 -1.870744 -0.765368 11.197926 -13.878402 18.143342 -1.225929 17.204203 4.736767 -10.658715 
200.287399 91.898567 -530.374878 91.523292 3.727103 91.069159 -174.263725 -0.656295 -178.022665 -6.906904 -3.029229 -2.358338 80.829811 1.661070 -0.206757 21.454551 0.003086 -0.000001 -176.938455 1.873593 -178.862860 -14.193486 1.520058 2.204437 84.199492 -1.574753 0.024166 21.454557 -0.003115 -0.000019 5.885726 -0.526780 -0.191497 1.760510 -1.055086 -0.395687 1.442356 -1.057306 -0.389315 18.866965 5.569975 -0.148063 -16.174252 -4.440855 1.374561 -58.511396 -82.729293 -123.938167 -12.797451 -2.664060 -5.166865 -8.586320 -14.657564 0.966565 12.874862 9.135094 8.689848 -113.988925 88.521301 67.813731 -1.845031 -0.734566 11.170865 -13.872770 18.139567 -1.224550 17.131981 4.807654 -10.793219 
200.287506 91.896599 -530.406006 91.523135 3.746638 91.060062 -174.277577 -0.651407 -178.024714 -6.936548 -3.025265 -2.358940 80.837297 1.660498 -0.209379 21.454548 0.003080 -0.000001 -176.955148 1.873474 -178.852970 -14.224636 1.510259 2.193269 84.207749 -1.566879 0.024154 21.454560 -0.003100 -0.000015 5.889265 -0.527570 -0.191295 1.767609 -1.059015 -0.396496 1.449471 -1.061290 -0.390101 18.855519 5.555131 -0.143827 -16.207429 -4.421705 1.375324 -58.704916 -82.724758 -123.745392 -12.805391 -2.651452 -5.158939 -8.538767 -14.664083 0.967059 12.849759 9.244773 8.677109 -114.296809 88.536334 67.504645 -1.834341 -0.762919 11.220913 -13.894320 18.145921 -1.223177 17.084788 4.931118 -10.949998 
200.288406 91.895126 -530.440674 91.523039 3.767679 91.048464 -174.287494 -0.645903 -178.029277 -6.957151 -3.021059 -2.358930 80.838724 1.660070 -0.211362 21.454551 0.003082 -0.000001 -176.972319 1.874998 -178.845785 -14.254755 1.503238 2.181554 84.215748 -1.557370 0.030280 21.454557 -0.003114 -0.000018 5.895142 -0.528048 -0.191036 1.779370 -1.060829 -0.396664 1.461219 -1.063121 -0.390249 18.849234 5.550967 -0.145421 -16.269755 -4.415448 1.374426 -58.813086 -82.736882 -123.636246 -12.804130 -2.629181 -5.284215 -8.515257 -14.672112 0.967578 12.858982 9.355963 8.827937 -114.344395 88.534462 67.456895 -1.848177 -0.812236 11.230575 -13.880760 18.130930 -1.221865 17.065200 4.980864 -10.935255 
200.289505 91.894341 -530.478210 91.523012 3.790328 91.034373 -174.291866 -0.640799 -178.041503 -6.966891 -3.016537 -2.358488 80.833130 1.659816 -0.212296 21.454550 0.003096 -0.000001 -176.987318 1.878201 -178.842889 -14.279231 1.499356 2.170428 84.220385 -1.547767 0.039239 21.454560 -0.003106 -0.000016 5.903100 -0.528285 -0.190777 1.795312 -1.062017 -0.396340 1.477153 -1.064275 -0.389943 18.851694 5.547988 -0.158441 -16.347590 -4.413286 1.363046 -58.855576 -82.757789 -123.591590 -12.788300 -2.620749 -5.330280 -8.488354 -14.630740 0.968076 12.832819 9.374342 8.826686 -114.181973 88.517865 67.620239 -1.888083 -0.872184 11.198576 -13.833160 18.109412 -1.220665 17.070741 4.952220 -10.837834 
200.290604 91.894272 -530.518188 91.523053 3.815078 91.017639 -174.292289 -0.636300 -178.059712 -6.967540 -3.011366 -2.357776 80.821103 1.659722 -0.213135 21.454553 0.003094 0.000001 -176.998656 1.881028 -178.840457 -14.296382 1.497822 2.159186 84.219743 -1.538221 0.047797 21.454557 -0.003106 -0.000019 5.912937 -0.528316 -0.190565 1.814939 -1.062399 -0.395712 1.496800 -1.064659 -0.389332 18.870336 5.549654 -0.178789 -16.431518 -4.418454 1.345874 -58.842462 -82.781749 -123.602491 -12.776220 -2.611504 -5.334422 -8.454407 -14.590961 0.968584 12.799373 9.336939 8.741978 -114.087272 88.489356 67.716941 -1.946733 -0.927062 11.134918 -13.756607 18.082350 -1.219632 17.103198 4.908365 -10.764315 
200.290894 91.894730 -530.562012 91.523203 3.843338 91.002135 -174.290923 -0.633291 -178.078960 -6.967922 -3.006002 -2.356965 80.805229 1.659816 -0.213878 21.454555 0.003093 -0.000001 -177.006196 1.883747 -178.838367 -14.307612 1.497163 2.147880 84.212756 -1.529313 0.053182 21.454558 -0.003107 -0.000018 5.924912 -0.528197 -0.190444 1.838907 -1.061892 -0.394954 1.520746 -1.064122 -0.388575 18.906022 5.562883 -0.192493 -16.508019 -4.434598 1.338452 -58.809677 -82.801290 -123.633281 -12.766891 -2.596560 -5.330568 -8.422451 -14.587834 0.969099 12.766962 9.397327 8.757646 -113.928491 88.469282 67.877716 -2.002440 -0.987937 11.064450 -13.671423 18.053249 -1.218861 17.154012 4.791700 -10.642388 
200.291306 91.895714 -530.607422 91.523422 3.869241 90.988870 -174.289325 -0.630484 -178.098002 -6.962960 -3.000126 -2.356221 80.784513 1.660070 -0.214578 21.454551 0.003093 -0.000001 -177.015431 1.886805 -178.836687 -14.315789 1.497754 2.136584 84.201274 -1.521679 0.052743 21.454562 -0.003099 -0.000016 5.936745 -0.527981 -0.190489 1.862528 -1.060340 -0.394210 1.544392 -1.062566 -0.387849 18.954762 5.582324 -0.198195 -16.560011 -4.449382 1.337234 -58.709123 -82.807615 -123.733002 -12.752239 -2.562906 -5.349710 -8.424166 -14.610919 0.969602 12.735650 9.512130 8.881740 -113.857416 88.458074 67.949611 -2.045654 -1.043259 11.008012 -13.589016 17.997453 -1.218338 17.180888 4.746565 -10.627428 
200.291504 91.896919 -530.653809 91.523736 3.893674 90.977744 -174.289038 -0.626545 -178.114968 -6.955629 -2.994804 -2.355699 80.761598 1.661163 -0.215243 21.454551 0.003090 0.000000 -177.025376 1.890704 -178.836810 -14.321381 1.500002 2.126956 84.186794 -1.515973 0.048628 21.454558 -0.003118 -0.000018 5.948338 -0.527693 -0.190682 1.885732 -1.055853 -0.393672 1.567577 -1.058088 -0.387312 19.011980 5.598461 -0.197963 -16.574853 -4.448057 1.333259 -58.595728 -82.799740 -123.846957 -12.745611 -2.525466 -5.361252 -8.436995 -14.639496 0.970101 12.705980 9.636043 9.011544 -113.846324 88.452876 67.960553 -2.075625 -1.086304 11.010964 -13.528660 17.982677 -1.218202 17.267528 4.558106 -10.580276 
200.291702 91.898247 -530.700989 91.524152 3.916411 90.967704 -174.291565 -0.623192 -178.129694 -6.947420 -2.989754 -2.355588 80.737610 1.662638 -0.215914 21.454551 0.003086 0.000000 -177.037328 1.895911 -178.840936 -14.326638 1.506257 2.120585 84.171310 -1.513365 0.043194 21.454558 -0.003108 -0.000016 5.959705 -0.526711 -0.191149 1.908447 -1.050337 -0.393463 1.590310 -1.052541 -0.387140 19.062551 5.601219 -0.195191 -16.508238 -4.402436 1.316400 -58.473741 -82.783655 -123.970406 -12.744420 -2.496498 -5.349614 -8.448929 -14.671981 0.970591 12.689440 9.812321 9.038067 -113.787311 88.447951 68.020474 -2.068392 -1.103968 10.996648 -13.528462 17.981702 -1.218457 17.367481 4.526988 -10.390231 
200.290695 91.899567 -530.749084 91.525314 3.936334 90.960334 -174.298204 -0.621341 -178.140213 -6.939821 -2.987687 -2.356043 80.712960 1.664107 -0.216605 21.454553 0.003097 0.000001 -177.053926 1.902414 -178.853121 -14.334928 1.515935 2.119346 84.156817 -1.513586 0.036542 21.454557 -0.003113 -0.000019 5.970783 -0.524647 -0.191894 1.930588 -1.045313 -0.393794 1.612441 -1.047519 -0.387487 19.125083 5.610015 -0.192371 -16.436336 -4.369897 1.300273 -58.335799 -82.766491 -124.109810 -12.738160 -2.479682 -5.331831 -8.463658 -14.704610 0.971078 12.676834 9.959644 8.982648 -113.683943 88.434892 68.125461 -2.044525 -1.094575 11.027829 -13.579621 17.991651 -1.219181 17.446021 4.564360 -10.491802 
200.288406 91.900902 -530.796570 91.526994 3.950167 90.957711 -174.312752 -0.619753 -178.141347 -6.934884 -2.986489 -2.357228 80.689369 1.665882 -0.217373 21.454550 0.003088 -0.000001 -177.075496 1.909495 -178.871439 -14.343524 1.529917 2.124669 84.143354 -1.519148 0.028682 21.454560 -0.003115 -0.000020 5.980071 -0.522113 -0.192978 1.949148 -1.040357 -0.394802 1.631012 -1.042576 -0.388525 19.204183 5.635157 -0.190301 -16.414773 -4.369095 1.296825 -58.072857 -82.769557 -124.371898 -12.688969 -2.478786 -5.369575 -8.497808 -14.718639 0.971555 12.699282 9.977795 8.889601 -113.479474 88.413903 68.331664 -2.014278 -1.060469 11.062389 -13.652199 18.011579 -1.220406 17.495150 4.620512 -10.801270 
200.285095 91.902153 -530.844116 91.528893 3.960870 90.957083 -174.332683 -0.618640 -178.137658 -6.934148 -2.986139 -2.359325 80.667867 1.668195 -0.218212 21.454555 0.003100 0.000003 -177.100959 1.916601 -178.892299 -14.353822 1.545250 2.131600 84.130425 -1.526043 0.020005 21.454557 -0.003108 -0.000019 5.988553 -0.519325 -0.194451 1.966137 -1.035060 -0.396667 1.647985 -1.037306 -0.390416 19.286996 5.680296 -0.183066 -16.421397 -4.403523 1.312230 -57.789343 -82.782050 -124.653766 -12.614710 -2.495939 -5.494646 -8.548782 -14.710059 0.972015 12.760250 9.883831 8.904454 -113.237337 88.394771 68.575222 -1.982205 -0.985505 10.985322 -13.676550 17.996382 -1.222224 17.501871 4.719008 -11.044048 
200.280701 91.903214 -530.890930 91.530914 3.970409 90.957411 -174.356329 -0.618055 -178.128410 -6.939179 -2.986574 -2.364327 80.649726 1.671377 -0.219171 21.454557 0.003094 0.000000 -177.127528 1.922703 -178.912243 -14.364897 1.560248 2.138630 84.117973 -1.533216 0.010167 21.454560 -0.003101 -0.000016 5.996464 -0.516454 -0.196365 1.981962 -1.029616 -0.401280 1.663815 -1.031882 -0.395048 19.369069 5.722020 -0.174799 -16.437876 -4.440075 1.329956 -57.570032 -82.791728 -124.871772 -12.544629 -2.515520 -5.649036 -8.583658 -14.748279 0.972462 12.767748 9.755379 8.984838 -112.987154 88.379964 68.826908 -1.948714 -0.897088 10.838509 -13.654539 17.986009 -1.224677 17.439172 4.804131 -11.038521 
200.274902 91.903992 -530.936279 91.533045 3.980564 90.957411 -174.381614 -0.618156 -178.114040 -6.950564 -2.987742 -2.372682 80.635868 1.676732 -0.220279 21.454551 0.003095 -0.000000 -177.153141 1.927101 -178.929947 -14.376898 1.573781 2.144617 84.106533 -1.540026 -0.001540 21.454557 -0.003105 -0.000018 6.004029 -0.513303 -0.200239 1.997142 -1.023228 -0.409049 1.678995 -1.025539 -0.402859 19.449674 5.729645 -0.167674 -16.462716 -4.446547 1.336517 -57.552198 -82.786619 -124.889872 -12.501849 -2.548513 -5.759711 -8.583805 -14.808197 0.972927 12.738650 9.657602 9.086016 -112.793928 88.378639 69.020093 -1.912055 -0.843072 10.753568 -13.667690 18.079442 -1.230601 17.347535 4.807164 -10.904586 
200.267502 91.904404 -530.979614 91.535169 3.993097 90.955765 -174.404878 -0.619066 -178.096991 -6.965972 -2.989598 -2.383927 80.625834 1.683904 -0.221552 21.454553 0.003105 0.000001 -177.175735 1.928965 -178.945547 -14.389655 1.585144 2.149094 84.096233 -1.546069 -0.014708 21.454557 -0.003107 -0.000016 6.011446 -0.509701 -0.206756 2.011997 -1.015686 -0.422088 1.693856 -1.018085 -0.415930 19.510152 5.705592 -0.166760 -16.479064 -4.428316 1.337608 -57.720515 -82.768198 -124.723721 -12.476903 -2.584705 -5.784610 -8.585355 -14.829809 0.973395 12.776640 9.523044 9.106650 -112.773848 88.401615 69.038896 -1.871254 -0.835986 10.800506 -13.739512 18.225093 -1.240194 17.334824 4.591285 -10.989908 
200.258698 91.904427 -531.020203 91.537478 4.009360 90.950498 -174.422240 -0.620894 -178.084014 -6.981221 -2.993980 -2.393852 80.617570 1.690121 -0.223454 21.454553 0.003093 0.000001 -177.193508 1.930057 -178.957691 -14.403324 1.594137 2.152124 84.087524 -1.551255 -0.028914 21.454557 -0.003103 -0.000018 6.018600 -0.506582 -0.212333 2.026364 -1.009526 -0.433239 1.708223 -1.011983 -0.427137 19.542518 5.672694 -0.168629 -16.476962 -4.396484 1.322596 -57.823999 -82.753698 -124.621992 -12.454251 -2.598556 -5.751727 -8.607293 -14.855624 0.973894 12.847043 9.520532 9.154439 -112.758411 88.422441 69.052851 -1.844616 -0.851582 10.900216 -13.805983 18.306159 -1.242686 17.363362 4.495656 -10.945032 
200.248596 91.903999 -531.057678 91.540067 4.029999 90.943149 -174.432554 -0.625896 -178.077730 -6.996035 -2.998761 -2.400861 80.611170 1.694317 -0.226383 21.454551 0.003093 0.000001 -177.205816 1.930257 -178.959590 -14.418661 1.599680 2.151812 84.081008 -1.554200 -0.043943 21.454557 -0.003112 -0.000018 6.025280 -0.504611 -0.214786 2.039728 -1.005831 -0.437780 1.721569 -1.008325 -0.431690 19.568844 5.655043 -0.171661 -16.475393 -4.375975 1.307399 -57.724012 -82.762693 -124.720893 -12.416570 -2.581201 -5.728268 -8.641351 -14.885410 0.974398 12.893630 9.573588 9.137130 -112.765849 88.432522 69.045358 -1.830943 -0.886998 11.019949 -13.849837 18.303179 -1.242191 17.368667 4.611536 -10.860804 
200.237305 91.903061 -531.091980 91.542785 4.054308 90.933184 -174.436666 -0.631801 -178.080763 -7.010996 -3.003578 -2.403763 80.608861 1.695182 -0.229748 21.454553 0.003101 0.000002 -177.214162 1.929404 -178.948907 -14.437307 1.601285 2.142340 84.079178 -1.551111 -0.060574 21.454557 -0.003098 -0.000016 6.031340 -0.503196 -0.216103 2.051829 -1.002748 -0.438655 1.733690 -1.005244 -0.432581 19.589625 5.637555 -0.174251 -16.475156 -4.363254 1.295197 -57.563311 -82.790451 -124.878480 -12.371210 -2.540577 -5.723734 -8.676277 -14.895592 0.974911 12.877039 9.584518 9.030500 -112.801646 88.441913 69.008768 -1.827715 -0.937355 11.131322 -13.871454 18.250293 -1.240092 17.344330 4.762584 -10.790607 
200.224503 91.901672 -531.122803 91.545640 4.081182 90.922160 -174.435668 -0.638696 -178.092128 -7.026143 -3.008280 -2.402186 80.607775 1.693894 -0.233179 21.454555 0.003086 -0.000001 -177.218574 1.927410 -178.927433 -14.457851 1.598958 2.124346 84.078857 -1.542312 -0.078424 21.454560 -0.003099 -0.000016 6.035803 -0.502196 -0.217483 2.060725 -1.001181 -0.437920 1.742592 -1.003676 -0.431857 19.610136 5.625545 -0.174749 -16.478316 -4.363782 1.292989 -57.367476 -82.843603 -125.068700 -12.313242 -2.498085 -5.720961 -8.711478 -14.860315 0.975407 12.860030 9.479871 8.820155 -113.044876 88.454522 68.764029 -1.828014 -0.997976 11.212322 -13.866928 18.181882 -1.237679 17.334272 4.750180 -10.697941 
200.209503 91.899918 -531.150024 91.548686 4.110081 90.910958 -174.429781 -0.648098 -178.109928 -7.040667 -3.014088 -2.396670 80.607693 1.689363 -0.236570 21.454551 0.003093 -0.000000 -177.219695 1.922115 -178.898391 -14.478637 1.591792 2.102145 84.079738 -1.530507 -0.096199 21.454560 -0.003102 -0.000016 6.038294 -0.501387 -0.218703 2.065748 -1.000129 -0.436326 1.747606 -1.002643 -0.430270 19.636235 5.622459 -0.171162 -16.486502 -4.378220 1.301020 -57.124936 -82.920498 -125.303263 -12.243058 -2.459925 -5.727173 -8.736409 -14.804051 0.975897 12.876351 9.367006 8.596839 -113.915698 88.478646 67.889881 -1.811489 -1.076841 11.287852 -13.859096 18.131371 -1.236286 17.307517 4.616431 -10.755882 
200.192902 91.897926 -531.174683 91.552054 4.139753 90.900133 -174.421585 -0.658788 -178.132631 -7.055466 -3.020218 -2.387887 80.608520 1.682569 -0.240173 21.454551 0.003099 -0.000000 -177.219572 1.915000 -178.867368 -14.500181 1.581963 2.079069 84.081500 -1.517912 -0.113387 21.454557 -0.003101 -0.000017 6.040561 -0.500623 -0.219805 2.069018 -0.999471 -0.434645 1.750879 -1.002001 -0.428586 19.662950 5.627794 -0.165209 -16.503134 -4.405746 1.316508 -56.820176 -82.995930 -125.600034 -12.178650 -2.403715 -5.777182 -8.744981 -14.762062 0.976385 12.946439 9.414503 8.648682 -115.263472 88.509177 66.537531 -1.791005 -1.180985 11.295342 -13.824821 18.155780 -1.235906 17.295011 4.392563 -10.827317 
200.177399 91.895851 -531.198181 91.555749 4.169245 90.885987 -174.412596 -0.667009 -178.161455 -7.071004 -3.021963 -2.377588 80.610057 1.674541 -0.244016 21.454553 0.003103 0.000003 -177.218561 1.909100 -178.840881 -14.523752 1.573128 2.056256 84.083829 -1.505297 -0.129463 21.454557 -0.003106 -0.000016 6.042753 -0.499887 -0.220771 2.072714 -0.999087 -0.433622 1.754568 -1.001628 -0.427571 19.684060 5.639712 -0.159479 -16.527424 -4.443530 1.335972 -56.527759 -83.052792 -125.886206 -12.129391 -2.333450 -5.859277 -8.740761 -14.768640 0.976822 13.046411 9.459619 8.673361 -116.173554 88.538076 65.623515 -1.779147 -1.276934 11.223439 -13.730490 18.131488 -1.235526 17.327891 4.324591 -10.657652 
200.162598 91.893753 -531.221130 91.560175 4.197842 90.873085 -174.404659 -0.673002 -178.190661 -7.087556 -3.022073 -2.366397 80.612119 1.665753 -0.248355 21.454551 0.003094 -0.000001 -177.217072 1.904607 -178.818724 -14.549136 1.565816 2.036311 84.086391 -1.494323 -0.143751 21.454560 -0.003108 -0.000017 6.044955 -0.499197 -0.221634 2.078191 -0.998855 -0.434028 1.760054 -1.001407 -0.427971 19.693937 5.648590 -0.155845 -16.550202 -4.478443 1.352758 -56.364982 -83.082271 -126.045732 -12.099281 -2.266216 -5.950254 -8.723152 -14.815392 0.977240 13.156683 9.500070 8.891708 -116.547739 88.551251 65.247861 -1.777745 -1.354696 11.276130 -13.689809 18.105952 -1.235166 17.363526 4.179329 -10.833277 
200.148605 91.891586 -531.242920 91.565625 4.225742 90.865353 -174.398362 -0.676406 -178.214717 -7.106107 -3.020922 -2.355357 80.614592 1.656882 -0.253266 21.454553 0.003090 -0.000000 -177.215433 1.904245 -178.818505 -14.574586 1.563189 2.030963 84.088849 -1.493559 -0.157614 21.454558 -0.003106 -0.000016 6.047523 -0.498522 -0.222376 2.084207 -0.998649 -0.437400 1.766064 -1.001204 -0.431347 19.706260 5.647457 -0.154471 -16.573553 -4.499154 1.361940 -56.312755 -83.091328 -126.096999 -12.069560 -2.212434 -6.018284 -8.684804 -14.877460 0.977612 13.242832 9.556364 9.265555 -116.593774 88.556934 65.201143 -1.774570 -1.419145 11.348283 -13.672575 18.080967 -1.234860 17.390971 4.074249 -11.002736 
200.134705 91.889343 -531.263611 91.571001 4.254111 90.861911 -174.392748 -0.680291 -178.234169 -7.127183 -3.018841 -2.344550 80.619332 1.648022 -0.258609 21.454553 0.003098 0.000001 -177.212919 1.903594 -178.834515 -14.598648 1.562120 2.037252 84.092381 -1.500281 -0.168494 21.454558 -0.003106 -0.000017 6.050938 -0.497883 -0.223010 2.091032 -0.998327 -0.443152 1.772897 -1.000895 -0.437107 19.716721 5.640521 -0.154250 -16.584620 -4.506975 1.365245 -56.322962 -83.087011 -126.087314 -12.026330 -2.179004 -6.065765 -8.643186 -14.926936 0.977925 13.309812 9.595388 9.657845 -116.392297 88.556531 65.403460 -1.757519 -1.467165 11.390105 -13.670721 18.056293 -1.234551 17.397752 4.112789 -11.052337 
200.120895 91.887108 -531.283203 91.575843 4.283689 90.864349 -174.387010 -0.683402 -178.246463 -7.150382 -3.016244 -2.334532 80.624939 1.639622 -0.264302 21.454555 0.003090 0.000000 -177.206061 1.897989 -178.843695 -14.619403 1.562279 2.043833 84.093972 -1.505751 -0.173037 21.454560 -0.003108 -0.000018 6.054765 -0.497287 -0.223570 2.098799 -0.997789 -0.450291 1.780642 -1.000367 -0.444256 19.731745 5.628285 -0.155248 -16.590241 -4.501341 1.361779 -56.334772 -83.080290 -126.076058 -11.961750 -2.180360 -6.088320 -8.603930 -14.924689 0.978186 13.358691 9.587801 9.974807 -115.946559 88.550711 65.850448 -1.715672 -1.497062 11.385167 -13.670571 18.037191 -1.234291 17.339479 4.294995 -11.030609 
200.107498 91.884941 -531.301575 91.580959 4.313443 90.872709 -174.381710 -0.684944 -178.254496 -7.174893 -3.011531 -2.323573 80.630991 1.630552 -0.269978 21.454551 0.003084 -0.000002 -177.195803 1.891111 -178.854172 -14.636815 1.563363 2.054773 84.094669 -1.513267 -0.173044 21.454558 -0.003110 -0.000018 6.058643 -0.496716 -0.224132 2.106505 -0.996890 -0.457133 1.788370 -0.999487 -0.451094 19.757692 5.616162 -0.158713 -16.596426 -4.486060 1.351694 -56.280970 -83.080345 -126.129825 -11.875431 -2.217442 -6.114918 -8.550593 -14.863803 0.978386 13.376260 9.513015 10.149195 -115.360515 88.538205 66.438391 -1.652418 -1.506602 11.384318 -13.688672 18.047289 -1.234067 17.368404 4.529904 -10.949228 
200.094696 91.882721 -531.319397 91.586355 4.342426 90.886472 -174.379688 -0.686088 -178.271120 -7.204491 -3.005358 -2.304278 80.638859 1.616014 -0.274105 21.454555 0.003074 -0.000001 -177.184410 1.884010 -178.865675 -14.652585 1.565003 2.069431 84.094778 -1.522516 -0.168993 21.454560 -0.003094 -0.000015 6.062227 -0.496170 -0.224659 2.113704 -0.995311 -0.462188 1.795562 -0.997939 -0.456164 19.789290 5.611737 -0.164770 -16.595787 -4.468800 1.337382 -56.105189 -83.097202 -126.303653 -11.765651 -2.258250 -6.214924 -8.516305 -14.844340 0.978498 13.459102 9.481280 10.168733 -114.723272 88.513255 67.078434 -1.591964 -1.493855 11.408003 -13.691784 18.105138 -1.233863 17.399251 4.603511 -10.916070 
200.082901 91.880379 -531.337524 91.592331 4.370149 90.904593 -174.382065 -0.686846 -178.292403 -7.239461 -2.997468 -2.279648 80.648435 1.597995 -0.277204 21.454557 0.003098 0.000002 -177.173536 1.878495 -178.876097 -14.667649 1.566925 2.085621 84.094676 -1.530926 -0.155832 21.454562 -0.003116 -0.000018 6.065870 -0.495668 -0.225182 2.120956 -0.993555 -0.463613 1.802817 -0.996201 -0.457611 19.818386 5.620972 -0.171068 -16.583430 -4.457016 1.324208 -55.912916 -83.112563 -126.493847 -11.680710 -2.305291 -6.303105 -8.469803 -14.838350 0.978523 13.432640 9.432767 10.111012 -113.960634 88.470307 67.845054 -1.552625 -1.462880 11.467682 -13.687282 18.184190 -1.233685 17.401734 4.494729 -10.910143 
200.071899 91.877892 -531.356628 91.598827 4.396297 90.926531 -174.390412 -0.687268 -178.321759 -7.281429 -2.988545 -2.247870 80.659958 1.575352 -0.279128 21.454555 0.003091 -0.000001 -177.164520 1.874493 -178.883652 -14.682885 1.568752 2.101953 84.094676 -1.537695 -0.134032 21.454558 -0.003119 -0.000018 6.069755 -0.495193 -0.225657 2.128767 -0.991673 -0.463424 1.810609 -0.994315 -0.457432 19.843901 5.641895 -0.173044 -16.561172 -4.450342 1.317784 -55.785891 -83.113307 -126.620547 -11.649989 -2.349817 -6.350681 -8.406657 -14.846871 0.978428 13.350002 9.415644 9.988554 -113.151475 88.415385 68.660162 -1.526054 -1.406930 11.590997 -13.698449 18.213992 -1.233534 17.358692 4.420205 -10.952404 
200.061401 91.875603 -531.377075 91.604680 4.421369 90.949658 -174.402119 -0.687407 -178.348219 -7.325803 -2.979791 -2.217012 80.671597 1.553388 -0.280719 21.454555 0.003102 0.000002 -177.158387 1.869399 -178.885987 -14.700797 1.570196 2.117536 84.095174 -1.546711 -0.125827 21.454560 -0.003112 -0.000017 6.074328 -0.494767 -0.226133 2.137897 -0.989827 -0.462557 1.819757 -0.992460 -0.456574 19.858191 5.664618 -0.173287 -16.529597 -4.445239 1.314376 -55.716766 -83.102495 -126.690583 -11.658191 -2.379462 -6.374041 -8.378560 -14.854589 0.978243 13.327371 9.389480 9.949076 -112.405844 88.356700 69.411073 -1.520848 -1.348820 11.674217 -13.685441 18.220503 -1.233419 17.324613 4.288656 -11.118802 
200.050797 91.873283 -531.399109 91.610001 4.445811 90.970504 -174.417241 -0.687323 -178.360036 -7.373489 -2.971824 -2.196142 80.684430 1.537936 -0.283491 21.454553 0.003084 -0.000001 -177.155341 1.863997 -178.886056 -14.721090 1.570921 2.130419 84.096492 -1.554196 -0.119277 21.454560 -0.003105 -0.000016 6.079383 -0.494363 -0.226585 2.148000 -0.988151 -0.462013 1.829863 -0.990793 -0.456029 19.864333 5.681823 -0.172028 -16.496684 -4.440145 1.310373 -55.680539 -83.087919 -126.728204 -11.694273 -2.385489 -6.360515 -8.393450 -14.845396 0.977993 13.419693 9.251425 10.032121 -111.923455 88.307304 69.897663 -1.536240 -1.313330 11.604961 -13.651771 18.233839 -1.233345 17.328543 4.274078 -11.101710 
200.039993 91.870773 -531.423584 91.615349 4.468679 90.988597 -174.439890 -0.687072 -178.359913 -7.430087 -2.963526 -2.183465 80.700625 1.527567 -0.289161 21.454550 0.003094 0.000001 -177.158250 1.858706 -178.884881 -14.746443 1.570616 2.139042 84.098972 -1.559058 -0.114405 21.454560 -0.003105 -0.000017 6.084573 -0.493997 -0.227016 2.158366 -0.986816 -0.462744 1.840238 -0.989457 -0.456764 19.869261 5.696946 -0.169522 -16.471829 -4.448829 1.313951 -55.742437 -83.060052 -126.669273 -11.767863 -2.365463 -6.317930 -8.395367 -14.826831 0.977656 13.460520 9.135079 9.860152 -111.954539 88.269123 69.869167 -1.564224 -1.296348 11.459992 -13.605581 18.233818 -1.233290 17.352972 4.396665 -10.947928 
200.028793 91.868172 -531.451721 91.621810 4.486871 91.003146 -174.472852 -0.686719 -178.354749 -7.493651 -2.955292 -2.176056 80.718397 1.520495 -0.296411 21.454555 0.003096 -0.000000 -177.172416 1.854793 -178.883474 -14.779375 1.568927 2.144983 84.104477 -1.562263 -0.110792 21.454560 -0.003110 -0.000019 6.088991 -0.493675 -0.227429 2.167212 -0.986276 -0.466042 1.849081 -0.988943 -0.460079 19.877435 5.707138 -0.163812 -16.459267 -4.474388 1.328076 -55.699581 -83.053133 -126.712659 -11.803329 -2.319179 -6.325092 -8.422314 -14.810210 0.977288 13.478113 9.023050 9.711843 -112.653486 88.259984 69.168909 -1.578465 -1.334567 11.435642 -13.624125 18.258395 -1.233273 17.382285 4.456847 -10.764446 
